STARLINK-34967          
1 65177U 25175D   26007.66009316  .00002056  00000+0  14666-3 0  9990
2 65177  97.6024 242.4479 0002382  71.7202 288.4283 15.05648840 23452
STARLINK-34929          
1 65178U 25175E   26007.65729914 -.00007549  00000+0 -51941-3 0  9994
2 65178  97.5997 242.4502 0002136  92.9370 267.2102 15.05657174 23451
STARLINK-34932          
1 65179U 25175F   26007.78470409  .00004823  00000+0  33822-3 0  9999
2 65179  97.6024 242.5917 0002416  75.1670 284.9824 15.05653901 23475
STARLINK-34862          
1 65180U 25175G   26007.71546664  .00021873  00000+0  15137-2 0  9993
2 65180  97.6026 242.5304 0002269  90.0541 270.0945 15.05693577 23460
STARLINK-34942          
1 65181U 25175H   26007.65456714  .00005530  00000+0  38716-3 0  9994
2 65181  97.6015 242.4576 0002235  79.0780 281.0698 15.05652160 23420
STARLINK-34944          
1 65182U 25175J   26007.71270887  .00003293  00000+0  23227-3 0  9992
2 65182  97.6025 242.5338 0002288  87.3936 272.7553 15.05653409 23460
STARLINK-34939          
1 65183U 25175K   26007.64348236  .00002411  00000+0  17120-3 0  9995
2 65183  97.6022 242.4717 0002382  89.9458 270.2042 15.05652517 23421
STARLINK-34947          
1 65184U 25175L   26007.64071330  .00000072  00000+0  91931-5 0  9999
2 65184  97.6025 242.4753 0002255  88.0434 272.1051 15.05650804 23459
STARLINK-34945          
1 65185U 25175M   26007.63794910  .00000580  00000+0  44436-4 0  9996
2 65185  97.6025 242.4794 0002855  85.1437 275.0116 15.05644385 23453
STARLINK-34965          
1 65186U 25175N   26007.63240624  .00001148  00000+0  83786-4 0  9997
2 65186  97.6031 242.4873 0002497  78.8736 281.2772 15.05650285 23455
STARLINK-34915          
1 65187U 25175P   26007.63517449  .00001834  00000+0  13129-3 0  9995
2 65187  97.6027 242.4835 0002682  82.9568 277.1964 15.05652832 23451
STARLINK-34972          
1 65188U 25175Q   26007.62964001  .00000510  00000+0  39551-4 0  9993
2 65188  97.6026 242.4910 0003016  85.0674 275.0897 15.05661530 23423
STARLINK-34866          
1 65189U 25175R   26007.62687125  .00006226  00000+0  43518-3 0  9990
2 65189  97.6026 242.4947 0002400  81.5066 278.6432 15.05663995 23450
STARLINK-34917          
1 65190U 25175S   26007.83335648 -.00037866  00000+0 -26334-2 0  9997
2 65190  97.6022 242.7044 0001871  81.9216 331.7261 15.05657666  5810
STARLINK-34948          
1 65191U 25175T   26007.62135140 -.00001404  00000+0 -93156-4 0  9997
2 65191  97.6042 242.4983 0002352  84.9005 275.2490 15.05619346 23455
STARLINK-34955          
1 65192U 25175U   26007.61856253  .00002841  00000+0  20098-3 0  9990
2 65192  97.6016 242.5058 0002391  84.1249 276.0250 15.05654969 23426
STARLINK-34950          
1 65193U 25175V   26007.88162913  .00005331  00000+0  37336-3 0  9993
2 65193  97.6011 242.7713 0002388  61.8562 298.2906 15.05654066 23464
