[{"OBJECT_NAME":"STARLINK-34967","OBJECT_ID":"2025-175D","EPOCH":"2026-01-07T15:50:32.049024","MEAN_MOTION":15.0564884,"ECCENTRICITY":0.0002382,"INCLINATION":97.6024,"RA_OF_ASC_NODE":242.4479,"ARG_OF_PERICENTER":71.7202,"MEAN_ANOMALY":288.4283,"EPHEMERIS_TYPE":0,"CLASSIFICATION_TYPE":"U","NORAD_CAT_ID":65177,"ELEMENT_SET_NO":999,"REV_AT_EPOCH":2345,"BSTAR":0.00014666,"MEAN_MOTION_DOT":2.056e-5,"MEAN_MOTION_DDOT":0},{"OBJECT_NAME":"STARLINK-34929","OBJECT_ID":"2025-175E","EPOCH":"2026-01-07T15:46:30.645696","MEAN_MOTION":15.05657174,"ECCENTRICITY":0.0002136,"INCLINATION":97.5997,"RA_OF_ASC_NODE":242.4502,"ARG_OF_PERICENTER":92.937,"MEAN_ANOMALY":267.2102,"EPHEMERIS_TYPE":0,"CLASSIFICATION_TYPE":"U","NORAD_CAT_ID":65178,"ELEMENT_SET_NO":999,"REV_AT_EPOCH":2345,"BSTAR":-0.00051941,"MEAN_MOTION_DOT":-7.549e-5,"MEAN_MOTION_DDOT":0},{"OBJECT_NAME":"STARLINK-34932","OBJECT_ID":"2025-175F","EPOCH":"2026-01-07T18:49:58.433376","MEAN_MOTION":15.05653901,"ECCENTRICITY":0.0002416,"INCLINATION":97.6024,"RA_OF_ASC_NODE":242.5917,"ARG_OF_PERICENTER":75.167,"MEAN_ANOMALY":284.9824,"EPHEMERIS_TYPE":0,"CLASSIFICATION_TYPE":"U","NORAD_CAT_ID":65179,"ELEMENT_SET_NO":999,"REV_AT_EPOCH":2347,"BSTAR":0.00033822,"MEAN_MOTION_DOT":4.823e-5,"MEAN_MOTION_DDOT":0},{"OBJECT_NAME":"STARLINK-34862","OBJECT_ID":"2025-175G","EPOCH":"2026-01-07T17:10:16.317696","MEAN_MOTION":15.05693577,"ECCENTRICITY":0.0002269,"INCLINATION":97.6026,"RA_OF_ASC_NODE":242.5304,"ARG_OF_PERICENTER":90.0541,"MEAN_ANOMALY":270.0945,"EPHEMERIS_TYPE":0,"CLASSIFICATION_TYPE":"U","NORAD_CAT_ID":65180,"ELEMENT_SET_NO":999,"REV_AT_EPOCH":2346,"BSTAR":0.0015137,"MEAN_MOTION_DOT":0.00021873,"MEAN_MOTION_DDOT":0},{"OBJECT_NAME":"STARLINK-34942","OBJECT_ID":"2025-175H","EPOCH":"2026-01-07T15:42:34.600896","MEAN_MOTION":15.0565216,"ECCENTRICITY":0.0002235,"INCLINATION":97.6015,"RA_OF_ASC_NODE":242.4576,"ARG_OF_PERICENTER":79.078,"MEAN_ANOMALY":281.0698,"EPHEMERIS_TYPE":0,"CLASSIFICATION_TYPE":"U","NORAD_CAT_ID":65181,"ELEMENT_SET_NO":999,"REV_AT_EPOCH":2342,"BSTAR":0.00038716,"MEAN_MOTION_DOT":5.53e-5,"MEAN_MOTION_DDOT":0},{"OBJECT_NAME":"STARLINK-34944","OBJECT_ID":"2025-175J","EPOCH":"2026-01-07T17:06:18.046368","MEAN_MOTION":15.05653409,"ECCENTRICITY":0.0002288,"INCLINATION":97.6025,"RA_OF_ASC_NODE":242.5338,"ARG_OF_PERICENTER":87.3936,"MEAN_ANOMALY":272.7553,"EPHEMERIS_TYPE":0,"CLASSIFICATION_TYPE":"U","NORAD_CAT_ID":65182,"ELEMENT_SET_NO":999,"REV_AT_EPOCH":2346,"BSTAR":0.00023227,"MEAN_MOTION_DOT":3.293e-5,"MEAN_MOTION_DDOT":0},{"OBJECT_NAME":"STARLINK-34939","OBJECT_ID":"2025-175K","EPOCH":"2026-01-07T15:26:36.875904","MEAN_MOTION":15.05652517,"ECCENTRICITY":0.0002382,"INCLINATION":97.6022,"RA_OF_ASC_NODE":242.4717,"ARG_OF_PERICENTER":89.9458,"MEAN_ANOMALY":270.2042,"EPHEMERIS_TYPE":0,"CLASSIFICATION_TYPE":"U","NORAD_CAT_ID":65183,"ELEMENT_SET_NO":999,"REV_AT_EPOCH":2342,"BSTAR":0.0001712,"MEAN_MOTION_DOT":2.411e-5,"MEAN_MOTION_DDOT":0},{"OBJECT_NAME":"STARLINK-34947","OBJECT_ID":"2025-175L","EPOCH":"2026-01-07T15:22:37.629120","MEAN_MOTION":15.05650804,"ECCENTRICITY":0.0002255,"INCLINATION":97.6025,"RA_OF_ASC_NODE":242.4753,"ARG_OF_PERICENTER":88.0434,"MEAN_ANOMALY":272.1051,"EPHEMERIS_TYPE":0,"CLASSIFICATION_TYPE":"U","NORAD_CAT_ID":65184,"ELEMENT_SET_NO":999,"REV_AT_EPOCH":2345,"BSTAR":9.1931e-6,"MEAN_MOTION_DOT":7.2e-7,"MEAN_MOTION_DDOT":0},{"OBJECT_NAME":"STARLINK-34945","OBJECT_ID":"2025-175M","EPOCH":"2026-01-07T15:18:38.802240","MEAN_MOTION":15.05644385,"ECCENTRICITY":0.0002855,"INCLINATION":97.6025,"RA_OF_ASC_NODE":242.4794,"ARG_OF_PERICENTER":85.1437,"MEAN_ANOMALY":275.0116,"EPHEMERIS_TYPE":0,"CLASSIFICATION_TYPE":"U","NORAD_CAT_ID":65185,"ELEMENT_SET_NO":999,"REV_AT_EPOCH":2345,"BSTAR":4.4436e-5,"MEAN_MOTION_DOT":5.8e-6,"MEAN_MOTION_DDOT":0},{"OBJECT_NAME":"STARLINK-34965","OBJECT_ID":"2025-175N","EPOCH":"2026-01-07T15:10:39.899136","MEAN_MOTION":15.05650285,"ECCENTRICITY":0.0002497,"INCLINATION":97.6031,"RA_OF_ASC_NODE":242.4873,"ARG_OF_PERICENTER":78.8736,"MEAN_ANOMALY":281.2772,"EPHEMERIS_TYPE":0,"CLASSIFICATION_TYPE":"U","NORAD_CAT_ID":65186,"ELEMENT_SET_NO":999,"REV_AT_EPOCH":2345,"BSTAR":8.3786e-5,"MEAN_MOTION_DOT":1.148e-5,"MEAN_MOTION_DDOT":0},{"OBJECT_NAME":"STARLINK-34915","OBJECT_ID":"2025-175P","EPOCH":"2026-01-07T15:14:39.075936","MEAN_MOTION":15.05652832,"ECCENTRICITY":0.0002682,"INCLINATION":97.6027,"RA_OF_ASC_NODE":242.4835,"ARG_OF_PERICENTER":82.9568,"MEAN_ANOMALY":277.1964,"EPHEMERIS_TYPE":0,"CLASSIFICATION_TYPE":"U","NORAD_CAT_ID":65187,"ELEMENT_SET_NO":999,"REV_AT_EPOCH":2345,"BSTAR":0.00013129,"MEAN_MOTION_DOT":1.834e-5,"MEAN_MOTION_DDOT":0},{"OBJECT_NAME":"STARLINK-34972","OBJECT_ID":"2025-175Q","EPOCH":"2026-01-07T15:06:40.896864","MEAN_MOTION":15.0566153,"ECCENTRICITY":0.0003016,"INCLINATION":97.6026,"RA_OF_ASC_NODE":242.491,"ARG_OF_PERICENTER":85.0674,"MEAN_ANOMALY":275.0897,"EPHEMERIS_TYPE":0,"CLASSIFICATION_TYPE":"U","NORAD_CAT_ID":65188,"ELEMENT_SET_NO":999,"REV_AT_EPOCH":2342,"BSTAR":3.9551e-5,"MEAN_MOTION_DOT":5.1e-6,"MEAN_MOTION_DDOT":0},{"OBJECT_NAME":"STARLINK-34866","OBJECT_ID":"2025-175R","EPOCH":"2026-01-07T15:02:41.676000","MEAN_MOTION":15.05663995,"ECCENTRICITY":0.00024,"INCLINATION":97.6026,"RA_OF_ASC_NODE":242.4947,"ARG_OF_PERICENTER":81.5066,"MEAN_ANOMALY":278.6432,"EPHEMERIS_TYPE":0,"CLASSIFICATION_TYPE":"U","NORAD_CAT_ID":65189,"ELEMENT_SET_NO":999,"REV_AT_EPOCH":2345,"BSTAR":0.00043518,"MEAN_MOTION_DOT":6.226e-5,"MEAN_MOTION_DDOT":0},{"OBJECT_NAME":"STARLINK-34917","OBJECT_ID":"2025-175S","EPOCH":"2026-01-07T20:00:01.999872","MEAN_MOTION":15.05657666,"ECCENTRICITY":0.0001871,"INCLINATION":97.6022,"RA_OF_ASC_NODE":242.7044,"ARG_OF_PERICENTER":81.9216,"MEAN_ANOMALY":331.7261,"EPHEMERIS_TYPE":0,"CLASSIFICATION_TYPE":"U","NORAD_CAT_ID":65190,"ELEMENT_SET_NO":999,"REV_AT_EPOCH":581,"BSTAR":-0.0026334,"MEAN_MOTION_DOT":-0.00037866,"MEAN_MOTION_DDOT":0},{"OBJECT_NAME":"STARLINK-34948","OBJECT_ID":"2025-175T","EPOCH":"2026-01-07T14:54:44.760960","MEAN_MOTION":15.05619346,"ECCENTRICITY":0.0002352,"INCLINATION":97.6042,"RA_OF_ASC_NODE":242.4983,"ARG_OF_PERICENTER":84.9005,"MEAN_ANOMALY":275.249,"EPHEMERIS_TYPE":0,"CLASSIFICATION_TYPE":"U","NORAD_CAT_ID":65191,"ELEMENT_SET_NO":999,"REV_AT_EPOCH":2345,"BSTAR":-9.3156e-5,"MEAN_MOTION_DOT":-1.404e-5,"MEAN_MOTION_DDOT":0},{"OBJECT_NAME":"STARLINK-34955","OBJECT_ID":"2025-175U","EPOCH":"2026-01-07T14:50:43.802592","MEAN_MOTION":15.05654969,"ECCENTRICITY":0.0002391,"INCLINATION":97.6016,"RA_OF_ASC_NODE":242.5058,"ARG_OF_PERICENTER":84.1249,"MEAN_ANOMALY":276.025,"EPHEMERIS_TYPE":0,"CLASSIFICATION_TYPE":"U","NORAD_CAT_ID":65192,"ELEMENT_SET_NO":999,"REV_AT_EPOCH":2342,"BSTAR":0.00020098,"MEAN_MOTION_DOT":2.841e-5,"MEAN_MOTION_DDOT":0},{"OBJECT_NAME":"STARLINK-34950","OBJECT_ID":"2025-175V","EPOCH":"2026-01-07T21:09:32.756832","MEAN_MOTION":15.05654066,"ECCENTRICITY":0.0002388,"INCLINATION":97.6011,"RA_OF_ASC_NODE":242.7713,"ARG_OF_PERICENTER":61.8562,"MEAN_ANOMALY":298.2906,"EPHEMERIS_TYPE":0,"CLASSIFICATION_TYPE":"U","NORAD_CAT_ID":65193,"ELEMENT_SET_NO":999,"REV_AT_EPOCH":2346,"BSTAR":0.00037336,"MEAN_MOTION_DOT":5.331e-5,"MEAN_MOTION_DDOT":0}]
